IRIDIUM 921             
1 24873U 97034E   24166.78448065  .00028466  00000+0  72685-3 0  9994
2 24873  86.3800 289.3037 0003081 237.0010 123.0948 15.39345132474815
IRIDIUM 26              
1 24903U 97043A   24166.82099059  .00000581  00000+0  19167-3 0  9992
2 24903  86.3956 264.7463 0002033  98.5426 261.6002 14.36399973403997
IRIDIUM 22              
1 24907U 97043E   24166.80510732  .00000583  00000+0  19680-3 0  9992
2 24907  86.3958 267.9891 0002192  93.7430 266.4017 14.35288308404067
DUMMY MASS 1            
1 24925U 97048A   24166.83659775  .00000690  00000+0  75374-4 0  9993
2 24925  86.3335 305.0752 0007488  26.7066 333.4543 14.86242867450550
DUMMY MASS 2            
1 24926U 97048B   24166.87284616  .00000677  00000+0  74305-4 0  9994
2 24926  86.3335 306.6015 0008672  34.5632 325.6154 14.86000861450346
IRIDIUM 29              
1 24944U 97051A   24166.87842280  .00000623  00000+0  20876-3 0  9999
2 24944  86.3945 297.8720 0002217  86.7632 273.3818 14.35736320400559
IRIDIUM 33              
1 24946U 97051C   24166.90299327  .00000501  00000+0  17108-3 0  9992
2 24946  86.3860 297.1130 0007656 181.7467 178.3703 14.34387870400085
IRIDIUM 28              
1 24948U 97051E   24166.88385995  .00000644  00000+0  21223-3 0  9999
2 24948  86.3951 295.5939 0001979 104.2760 255.8657 14.36690100401169
